STARLINK-36941          
1 67991U 26039F   26084.94637920  .00088314  00000+0  14917-2 0  9999
2 67991  42.9982 318.5356 0002063 268.4126  91.6498 15.50625651  4174
STARLINK-36950          
1 67992U 26039G   26084.91904593  .00056424  00000+0  95923-3 0  9994
2 67992  43.0028 318.3177 0002819 268.5077  91.5460 15.50619100  4172
STARLINK-36975          
1 67993U 26039H   26084.91202280  .00085708  00000+0  14464-2 0  9996
2 67993  42.9979 318.2609 0001815 234.6735 125.3955 15.50664793  4178
STARLINK-36993          
1 67994U 26039J   26085.16668981 -.01831882  00000+0 -44866-1 0  9992
2 67994  42.9989 316.1251 0001227 257.4998 349.0044 15.43157523  5525
STARLINK-36968          
1 67995U 26039K   26084.92653918  .00085912  00000+0  14508-2 0  9993
2 67995  42.9996 318.3761 0002851 272.5165  87.5369 15.50643888  4178
STARLINK-36979          
1 67996U 26039L   26085.16668981 -.01832313  00000+0 -46816-1 0  9991
2 67996  42.9997 316.0289 0001432 257.3629  27.6718 15.41908234  5522
STARLINK-36994          
1 67997U 26039M   26084.94306009  .00060096  00000+0  10211-2 0  9996
2 67997  42.9962 317.6175 0001833 248.4468 111.6197 15.50613442  4183
STARLINK-36988          
1 67998U 26039N   26084.93881264  .00059908  00000+0  10180-2 0  9992
2 67998  42.9972 317.5839 0001397 275.1316  84.9384 15.50610729  4180
STARLINK-36926          
1 67999U 26039P   26084.94139189  .00084123  00000+0  14239-2 0  9992
2 67999  42.9992 317.6039 0001496 256.4207 103.6487 15.50588499  4188
STARLINK-36931          
1 68000U 26039Q   26085.04982019  .00058750  00000+0  99938-3 0  9993
2 68000  43.0000 316.6894 0002035 274.8338  85.2290 15.50588778  4201
STARLINK-36903          
1 68001U 26039R   26085.16668981 -.01825174  00000+0 -53871-1 0  9995
2 68001  43.0001 316.4540 0001409 277.3701 194.5419 15.37558638  5525
STARLINK-36898          
1 68002U 26039S   26085.16668981 -.02124210  00000+0 -65476-1 0  9994
2 68002  42.9995 316.2698 0001371 262.2741 283.0389 15.36193659  5520
STARLINK-36862          
1 68003U 26039T   26085.16668981 -.02151893  00000+0 -69465-1 0  9994
2 68003  42.9989 316.4359 0001058 264.4900 213.3385 15.34811877  5522
STARLINK-36888          
1 68004U 26039U   26085.16668981 -.02153463  00000+0 -67562-1 0  9996
2 68004  43.0000 316.4610 0001135 281.6391 186.1890 15.35696616  5521
STARLINK-36910          
1 68005U 26039V   26085.16668981 -.02161794  00000+0 -68034-1 0  9998
2 68005  42.9986 316.1998 0001792 253.4355 320.2717 15.35609052  5522
STARLINK-36889          
1 68006U 26039W   26085.16668981 -.01904538  00000+0 -43872-1 0  9992
2 68006  42.9999 316.3232 0001350 280.3510 244.5897 15.45070749  5525
STARLINK-36592          
1 68007U 26039X   26085.16668981 -.01818088  00000+0 -50694-1 0  9997
2 68007  42.9998 316.1223 0001352 257.5529 348.4778 15.39271697  5521
STARLINK-36911          
1 68008U 26039Y   26085.16668981 -.01845156  00000+0 -45240-1 0  9995
2 68008  42.9998 316.1358 0001243 257.9020 342.8949 15.43148438  5529
STARLINK-36956          
1 68009U 26039Z   26085.16668981 -.01853834  00000+0 -42175-1 0  9992
2 68009  43.0001 316.1724 0000968 266.8539 318.9847 15.45347361  5520
STARLINK-36953          
1 68010U 26039AA  26085.16668981 -.01831357  00000+0 -53559-1 0  9998
2 68010  42.9994 315.7945 0001687 258.5397 119.1244 15.37847432  5527
STARLINK-36991          
1 68011U 26039AB  26084.91561370  .00071790  00000+0  12157-2 0  9999
2 68011  43.0002 318.2851 0002313 263.7955  96.2642 15.50639042  4177
STARLINK-36936          
1 68012U 26039AC  26085.05701623  .00087038  00000+0  14708-2 0  9999
2 68012  42.9991 316.7417 0002671 271.6570  88.3984 15.50619146  4200
STARLINK-36967          
1 68013U 26039AD  26084.97468132  .00057688  00000+0  98136-3 0  9991
2 68013  43.0002 317.8679 0002022 272.7124  87.3504 15.50594348  4185
STARLINK-36985          
1 68014U 26039AE  26085.16668981 -.01807757  00000+0 -51027-1 0  9997
2 68014  42.9993 315.7132 0001524 269.1784 141.2267 15.38881880  5523
STARLINK-36335          
1 68015U 26040A   26085.19724990  .00497784  00000+0  30997-2 0  9992
2 68015  97.2858  34.4513 0006790 191.3476 168.7637 15.75533773  3955
STARLINK-36923          
1 68016U 26040B   26085.13302515  .00374468  00000+0  23938-2 0  9992
2 68016  97.2848  34.3870 0001572  97.5428 262.6015 15.75279057  3942
STARLINK-36568          
1 68017U 26040C   26085.13232271  .00361330  00000+0  22972-2 0  9995
2 68017  97.2868  34.3872 0002080 114.2807 245.8676 15.75442517  3949
STARLINK-36930          
1 68018U 26040D   26084.81644460  .00297693  00000+0  19167-2 0  9999
2 68018  97.2861  34.0514 0001953 123.2609 236.8844 15.75325352  3899
STARLINK-36921          
1 68019U 26040E   26085.12985200  .00378259  00000+0  24171-2 0  9994
2 68019  97.2854  34.3950 0002604 112.7821 247.3720 15.75276757  3942
STARLINK-36928          
1 68020U 26040F   26085.13091119  .00344014  00000+0  21931-2 0  9997
2 68020  97.2853  34.3913 0002223 127.2595 232.8873 15.75426464  3948
STARLINK-36858          
1 68021U 26040G   26083.53835390  .00276588  00000+0  17848-2 0  9999
2 68021  97.2853  32.8877 0001694  78.8231 281.3225 15.75331784  3704
STARLINK-36916          
1 68022U 26040H   26084.81115410  .00263429  00000+0  17035-2 0  9994
2 68022  97.2858  34.0595 0002053 110.0346 250.1140 15.75319410  3899
STARLINK-36871          
1 68023U 26040J   26085.12844146  .00379656  00000+0  24063-2 0  9994
2 68023  97.2872  34.3918 0003305 121.2754 238.8835 15.75461171  3948
STARLINK-36891          
1 68024U 26040K   26085.12773500  .00437664  00000+0  27594-2 0  9996
2 68024  97.2855  34.3937 0002423 136.2027 223.9430 15.75423805  3948
STARLINK-36378          
1 68025U 26040L   26085.18984916  .00211510  00000+0  13811-2 0  9995
2 68025  97.2846  34.4655 0000480 130.7067 229.4240 15.75240423  3955
STARLINK-36884          
1 68026U 26040M   26085.19019244  .00433133  00000+0  27378-2 0  9990
2 68026  97.2853  34.4627 0001302 105.8276 254.3133 15.75376607  3954
STARLINK-36940          
1 68027U 26040N   26085.11785289  .00343720  00000+0  22050-2 0  9996
2 68027  97.2852  34.4151 0001020 206.6190 153.5023 15.75281786  3948
STARLINK-36253          
1 68028U 26040P   26085.16668981 -.01814486  00000+0 -43133-1 0  9990
2 68028  97.2839  34.0255 0002085 101.9759 227.0194 15.44704278  5170
STARLINK-36944          
1 68029U 26040Q   26085.18914352  .00220827  00000+0  14405-2 0  9997
2 68029  97.2857  34.4636 0000795 171.1201 189.0079 15.75237275  3950
STARLINK-36942          
1 68030U 26040R   26085.12491124  .00252766  00000+0  16412-2 0  9997
2 68030  97.2852  34.4007 0001085  93.4779 266.6611 15.75255937  3946
STARLINK-36913          
1 68031U 26040S   26085.12425101  .00251645  00000+0  16326-2 0  9999
2 68031  97.2863  34.4025 0004914 148.9155 211.2401 15.75268576  3943
STARLINK-36935          
1 68032U 26040T   26084.61104756  .00200485  00000+0  13098-2 0  9992
2 68032  97.2856  33.8763 0002167 124.4476 235.6994 15.75258139  3863
STARLINK-36947          
1 68033U 26040U   26085.12349789  .00387339  00000+0  24510-2 0  9992
2 68033  97.2851  34.4032 0003375 116.3583 243.8029 15.75477602  3943
STARLINK-36939          
1 68034U 26040V   26085.12067698  .00325372  00000+0  20810-2 0  9997
2 68034  97.2852  34.4088 0002910 121.3737 238.7813 15.75402746  3948
STARLINK-36943          
1 68035U 26040W   26085.18314660  .00287397  00000+0  18635-2 0  9994
2 68035  97.2831  34.4793 0000376 112.2191 247.9114 15.75189538  5080
STARLINK-36906          
1 68036U 26040X   26084.42258460  .00206807  00000+0  13511-2 0  9991
2 68036  97.2841  33.6748 0002220  89.8326 270.3193 15.75240958  3834
STARLINK-36388          
1 68037U 26040Y   26085.11996946  .00668246  00000+0  41211-2 0  9994
2 68037  97.2889  34.4106 0004475 102.3930 257.7836 15.75298855  3944
STARLINK-36895          
1 68038U 26040Z   26084.80444658  .00422598  00000+0  26739-2 0  9994
2 68038  97.2858  34.0712 0001882 114.3696 245.7766 15.75383633  3893
STARLINK-36373          
1 68039U 26040AA  26085.18642919 -.00721651  00000+0 -54602-2 0  9991
2 68039  97.2833  34.4706 0000976 289.7032  70.4127 15.74330093  3950
STARLINK-36711          
1 68040U 26041A   26085.07539747  .00253986  00000+0  16068-2 0  9999
2 68040  53.1588 340.4939 0001031  96.2888 263.8250 15.75309315  3804
STARLINK-36825          
1 68041U 26041B   26085.09682688  .00229311  00000+0  11307-2 0  9991
2 68041  53.1591 339.8974 0001153  77.2746 282.8406 15.80950967  3813
STARLINK-36925          
1 68042U 26041C   26085.20261301  .00192937  00000+0  12301-2 0  9998
2 68042  53.1586 339.8635 0001720 154.1900 205.9206 15.75316660  3824
STARLINK-36902          
1 68043U 26041D   26085.15929839  .00047110  00000+0  24092-3 0  9993
2 68043  53.1590 339.5773 0000582  70.5212 289.5873 15.80873088  3828
STARLINK-36966          
1 68044U 26041E   26085.00774225  .00108930  00000+0  70453-3 0  9995
2 68044  53.1590 340.7814 0001093 104.1045 256.0097 15.75275623  3793
STARLINK-36864          
1 68045U 26041F   26085.13430602  .00208448  00000+0  13269-2 0  9994
2 68045  53.1597 340.1485 0001267  65.1725 294.9427 15.75305291  3819
STARLINK-36321          
1 68046U 26041G   26085.10706956  .00235757  00000+0  14941-2 0  9991
2 68046  53.1592 339.9673 0000203 329.1300  30.9709 15.75323539  3817
STARLINK-36181          
1 68047U 26041H   26085.15703831  .00317490  00000+0  15432-2 0  9997
2 68047  53.1587 339.5616 0000759 159.7204 200.3849 15.81019310  3826
STARLINK-36318          
1 68048U 26041J   26085.13009541  .00141943  00000+0  91264-3 0  9999
2 68048  53.1606 340.1199 0001179  64.9672 295.1470 15.75290159  3812
STARLINK-36885          
1 68049U 26041K   26085.00287146  .00255680  00000+0  16157-2 0  9996
2 68049  53.1602 340.7474 0001362 123.8012 236.3138 15.75331260  3792
